start=new Date('2021-11-22T00:00:00.000Z').valueOf();
sats=[{"COUNTRY_CODE":"US","BSTAR":"0.00009120900000","LAUNCH_DATE":"2020-01-07","REV_AT_EPOCH":"10338","OBJECT_NAME":"STARLINK-1106","MEAN_MOTION_DDOT":"0.0000000000000","RA_OF_ASC_NODE":"189.3966","TLE_LINE1":"1 44923U 20001K   21325.85492560  .00001077  00000-0  91209-4 0  9997","RCS_SIZE":"LARGE","REF_FRAME":"TEME","MEAN_ANOMALY":"284.0754","TIME_SYSTEM":"UTC","MEAN_MOTION":"15.06397141","TLE_LINE2":"2 44923  53.0526 189.3966 0001969  76.0453 284.0754 15.06397141103389","EPOCH":"2021-11-21T20:31:05.571840","INCLINATION":"53.0526","OBJECT_TYPE":"PAYLOAD","APOAPSIS":"548.586","CENTER_NAME":"EARTH","MEAN_MOTION_DOT":"0.00001077","PERIOD":"95.592","ECCENTRICITY":"0.00019690","MEAN_ELEMENT_THEORY":"SGP4","SEMIMAJOR_AXIS":"6925.357","DECAY_DATE":null,"GP_ID":"190210795","NORAD_CAT_ID":"44923","ELEMENT_SET_NO":"999","FILE":"3220884","OBJECT_ID":"2020-001K","ARG_OF_PERICENTER":"76.0453","SITE":"AFETR","CLASSIFICATION_TYPE":"U","EPHEMERIS_TYPE":"0","PERIAPSIS":"545.859"},{"MEAN_ELEMENT_THEORY":"SGP4","ECCENTRICITY":"0.00019820","DECAY_DATE":null,"SEMIMAJOR_AXIS":"6925.374","GP_ID":"190201417","NORAD_CAT_ID":"44924","ELEMENT_SET_NO":"999","FILE":"3220686","OBJECT_ID":"2020-001L","ARG_OF_PERICENTER":"73.3115","SITE":"AFETR","CLASSIFICATION_TYPE":"U","PERIAPSIS":"545.866","EPHEMERIS_TYPE":"0","BSTAR":"-0.00000192270000","COUNTRY_CODE":"US","LAUNCH_DATE":"2020-01-07","MEAN_MOTION_DDOT":"0.0000000000000","OBJECT_NAME":"STARLINK-1111","REV_AT_EPOCH":"10333","RA_OF_ASC_NODE":"190.9339","TLE_LINE1":"1 44924U 20001L   21325.51213915 -.00000310  00000-0 -19227-5 0  9998","REF_FRAME":"TEME","RCS_SIZE":"LARGE","TIME_SYSTEM":"UTC","MEAN_ANOMALY":"286.8092","MEAN_MOTION":"15.06391801","TLE_LINE2":"2 44924  53.0538 190.9339 0001982  73.3115 286.8092 15.06391801103332","EPOCH":"2021-11-21T12:17:28.822560","INCLINATION":"53.0538","OBJECT_TYPE":"PAYLOAD","MEAN_MOTION_DOT":"-0.00000310","APOAPSIS":"548.611","CENTER_NAME":"EARTH","PERIOD":"95.593"},{"NORAD_CAT_ID":"44925","GP_ID":"190201667","FILE":"3220686","ELEMENT_SET_NO":"999","SEMIMAJOR_AXIS":"6925.345","DECAY_DATE":null,"ECCENTRICITY":"0.00018580","MEAN_ELEMENT_THEORY":"SGP4","CLASSIFICATION_TYPE":"U","EPHEMERIS_TYPE":"0","PERIAPSIS":"545.923","ARG_OF_PERICENTER":"78.2087","OBJECT_ID":"2020-001M","SITE":"AFETR","RA_OF_ASC_NODE":"190.5656","REV_AT_EPOCH":"10334","OBJECT_NAME":"STARLINK-1112","MEAN_MOTION_DDOT":"0.0000000000000","RCS_SIZE":"LARGE","REF_FRAME":"TEME","TLE_LINE1":"1 44925U 20001M   21325.59321740  .00001268  00000-0  10399-3 0  9993","COUNTRY_CODE":"US","BSTAR":"0.00010399000000","LAUNCH_DATE":"2020-01-07","APOAPSIS":"548.496","CENTER_NAME":"EARTH","MEAN_MOTION_DOT":"0.00001268","OBJECT_TYPE":"PAYLOAD","INCLINATION":"53.0533","PERIOD":"95.592","MEAN_MOTION":"15.06401318","TLE_LINE2":"2 44925  53.0533 190.5656 0001858  78.2087 281.9110 15.06401318103343","MEAN_ANOMALY":"281.9110","TIME_SYSTEM":"UTC","EPOCH":"2021-11-21T14:14:13.983360"},{"SEMIMAJOR_AXIS":"6927.835","DECAY_DATE":null,"ECCENTRICITY":"0.00017320","MEAN_ELEMENT_THEORY":"SGP4","NORAD_CAT_ID":"44926","GP_ID":"190202418","FILE":"3220686","ELEMENT_SET_NO":"999","ARG_OF_PERICENTER":"76.3117","OBJECT_ID":"2020-001N","SITE":"AFETR","CLASSIFICATION_TYPE":"U","EPHEMERIS_TYPE":"0","PERIAPSIS":"548.500","COUNTRY_CODE":"US","BSTAR":"0.00009319000000","LAUNCH_DATE":"2020-01-07","RA_OF_ASC_NODE":"193.1216","REV_AT_EPOCH":"10398","OBJECT_NAME":"STARLINK-1113","MEAN_MOTION_DDOT":"0.0000000000000","RCS_SIZE":"LARGE","REF_FRAME":"TEME","TLE_LINE1":"1 44926U 20001N   21325.02571802  .00001079  00000-0  93190-4 0  9999","TLE_LINE2":"2 44926  52.9988 193.1216 0001732  76.3117 283.8064 15.05589052103981","MEAN_MOTION":"15.05589052","MEAN_ANOMALY":"283.8064","TIME_SYSTEM":"UTC","EPOCH":"2021-11-21T00:37:02.036928","CENTER_NAME":"EARTH","APOAPSIS":"550.900","MEAN_MOTION_DOT":"0.00001079","OBJECT_TYPE":"PAYLOAD","INCLINATION":"52.9988","PERIOD":"95.644"},{"MEAN_ELEMENT_THEORY":"SGP4","ECCENTRICITY":"0.00018000","DECAY_DATE":null,"SEMIMAJOR_AXIS":"6925.380","ELEMENT_SET_NO":"999","FILE":"3220686","GP_ID":"190203165","NORAD_CAT_ID":"44927","SITE":"AFETR","OBJECT_ID":"2020-001P","ARG_OF_PERICENTER":"75.8314","PERIAPSIS":"545.998","EPHEMERIS_TYPE":"0","CLASSIFICATION_TYPE":"U","LAUNCH_DATE":"2020-01-07","BSTAR":"0.00008834900000","COUNTRY_CODE":"US","TLE_LINE1":"1 44927U 20001P   21325.53794365  .00001034  00000-0  88349-4 0  9998","REF_FRAME":"TEME","RCS_SIZE":"LARGE","OBJECT_NAME":"STARLINK-1114","MEAN_MOTION_DDOT":"0.0000000000000","REV_AT_EPOCH":"10334","RA_OF_ASC_NODE":"190.8140","EPOCH":"2021-11-21T12:54:38.331360","TIME_SYSTEM":"UTC","MEAN_ANOMALY":"284.2874","MEAN_MOTION":"15.06389875","TLE_LINE2":"2 44927  53.0530 190.8140 0001800  75.8314 284.2874 15.06389875103342","PERIOD":"95.593","OBJECT_TYPE":"PAYLOAD","INCLINATION":"53.0530","MEAN_MOTION_DOT":"0.00001034","APOAPSIS":"548.491","CENTER_NAME":"EARTH"},{"ELEMENT_SET_NO":"999","FILE":"3220885","GP_ID":"190210363","NORAD_CAT_ID":"44928","MEAN_ELEMENT_THEORY":"SGP4","ECCENTRICITY":"0.00019550","DECAY_DATE":null,"SEMIMAJOR_AXIS":"6925.351","PERIAPSIS":"545.862","EPHEMERIS_TYPE":"0","CLASSIFICATION_TYPE":"U","SITE":"AFETR","OBJECT_ID":"2020-001Q","ARG_OF_PERICENTER":"74.7239","TLE_LINE1":"1 44928U 20001Q   21325.86598770  .00002289  00000-0  17253-3 0  9995","REF_FRAME":"TEME","RCS_SIZE":"LARGE","OBJECT_NAME":"STARLINK-1119","MEAN_MOTION_DDOT":"0.0000000000000","REV_AT_EPOCH":"10339","RA_OF_ASC_NODE":"189.3542","LAUNCH_DATE":"2020-01-07","BSTAR":"0.00017253000000","COUNTRY_CODE":"US","PERIOD":"95.592","INCLINATION":"53.0532","OBJECT_TYPE":"PAYLOAD","MEAN_MOTION_DOT":"0.00002289","CENTER_NAME":"EARTH","APOAPSIS":"548.569","EPOCH":"2021-11-21T20:47:01.337280","TIME_SYSTEM":"UTC","MEAN_ANOMALY":"285.3966","TLE_LINE2":"2 44928  53.0532 189.3542 0001955  74.7239 285.3966 15.06399357103394","MEAN_MOTION":"15.06399357"},{"PERIAPSIS":"545.964","EPHEMERIS_TYPE":"0","CLASSIFICATION_TYPE":"U","SITE":"AFETR","ARG_OF_PERICENTER":"78.8836","OBJECT_ID":"2020-001R","FILE":"3220409","ELEMENT_SET_NO":"999","NORAD_CAT_ID":"44929","GP_ID":"190175319","DECAY_DATE":null,"SEMIMAJOR_AXIS":"6925.357","MEAN_ELEMENT_THEORY":"SGP4","ECCENTRICITY":"0.00018160","PERIOD":"95.592","MEAN_MOTION_DOT":"0.00001060","APOAPSIS":"548.479","CENTER_NAME":"EARTH","OBJECT_TYPE":"PAYLOAD","INCLINATION":"53.0533","EPOCH":"2021-11-21T02:54:50.354496","MEAN_MOTION":"15.06397346","TLE_LINE2":"2 44929  53.0533 192.6817 0001816  78.8836 281.2357 15.06397346103274","TIME_SYSTEM":"UTC","MEAN_ANOMALY":"281.2357","REF_FRAME":"TEME","RCS_SIZE":"LARGE","TLE_LINE1":"1 44929U 20001R   21325.12141614  .00001060  00000-0  90056-4 0  9995","RA_OF_ASC_NODE":"192.6817","MEAN_MOTION_DDOT":"0.0000000000000","OBJECT_NAME":"STARLINK-1121","REV_AT_EPOCH":"10327","LAUNCH_DATE":"2020-01-07","BSTAR":"0.00009005600000","COUNTRY_CODE":"US"},{"MEAN_ELEMENT_THEORY":"SGP4","ECCENTRICITY":"0.00016470","DECAY_DATE":null,"SEMIMAJOR_AXIS":"6925.389","ELEMENT_SET_NO":"999","FILE":"3220885","GP_ID":"190210812","NORAD_CAT_ID":"44930","SITE":"AFETR","OBJECT_ID":"2020-001S","ARG_OF_PERICENTER":"88.5576","PERIAPSIS":"546.113","EPHEMERIS_TYPE":"0","CLASSIFICATION_TYPE":"U","LAUNCH_DATE":"2020-01-07","BSTAR":"0.00008450900000","COUNTRY_CODE":"US","TLE_LINE1":"1 44930U 20001S   21325.61903939  .00000977  00000-0  84509-4 0  9999","REF_FRAME":"TEME","RCS_SIZE":"LARGE","MEAN_MOTION_DDOT":"0.0000000000000","OBJECT_NAME":"STARLINK-1123","REV_AT_EPOCH":"10335","RA_OF_ASC_NODE":"190.4595","EPOCH":"2021-11-21T14:51:25.003296","TIME_SYSTEM":"UTC","MEAN_ANOMALY":"271.5601","MEAN_MOTION":"15.06386915","TLE_LINE2":"2 44930  53.0528 190.4595 0001647  88.5576 271.5601 15.06386915103353","PERIOD":"95.593","OBJECT_TYPE":"PAYLOAD","INCLINATION":"53.0528","MEAN_MOTION_DOT":"0.00000977","APOAPSIS":"548.394","CENTER_NAME":"EARTH"},{"COUNTRY_CODE":"US","BSTAR":"0.00106300000000","LAUNCH_DATE":"2020-01-07","REV_AT_EPOCH":"10409","OBJECT_NAME":"STARLINK-1128","MEAN_MOTION_DDOT":"0.0000000000000","RA_OF_ASC_NODE":"190.2422","TLE_LINE1":"1 44931U 20001T   21325.66177803  .00015832  00000-0  10630-2 0  9996","RCS_SIZE":"LARGE","REF_FRAME":"TEME","MEAN_ANOMALY":"267.0382","TIME_SYSTEM":"UTC","TLE_LINE2":"2 44931  53.0539 190.2422 0000558  93.0671 267.0382 15.06967965104098","MEAN_MOTION":"15.06967965","EPOCH":"2021-11-21T15:52:57.621792","INCLINATION":"53.0539","OBJECT_TYPE":"PAYLOAD","CENTER_NAME":"EARTH","APOAPSIS":"545.860","MEAN_MOTION_DOT":"0.00015832","PERIOD":"95.556","ECCENTRICITY":"0.00005580","MEAN_ELEMENT_THEORY":"SGP4","SEMIMAJOR_AXIS":"6923.608","DECAY_DATE":null,"GP_ID":"190210825","NORAD_CAT_ID":"44931","ELEMENT_SET_NO":"999","FILE":"3220886","OBJECT_ID":"2020-001T","ARG_OF_PERICENTER":"93.0671","SITE":"AFETR","CLASSIFICATION_TYPE":"U","EPHEMERIS_TYPE":"0","PERIAPSIS":"545.087"},{"REF_FRAME":"TEME","RCS_SIZE":"LARGE","TLE_LINE1":"1 44932U 20001U   21325.14354131 -.00000763  00000-0 -32300-4 0  9990","RA_OF_ASC_NODE":"192.5963","OBJECT_NAME":"STARLINK-1130","MEAN_MOTION_DDOT":"0.0000000000000","REV_AT_EPOCH":"10451","LAUNCH_DATE":"2020-01-07","BSTAR":"-0.00003230000000","COUNTRY_CODE":"US","PERIOD":"95.593","MEAN_MOTION_DOT":"-0.00000763","CENTER_NAME":"EARTH","APOAPSIS":"548.688","OBJECT_TYPE":"PAYLOAD","INCLINATION":"53.0534","EPOCH":"2021-11-21T03:26:41.969184","TLE_LINE2":"2 44932  53.0534 192.5963 0002074  77.0856 283.0364 15.06387434104513","MEAN_MOTION":"15.06387434","TIME_SYSTEM":"UTC","MEAN_ANOMALY":"283.0364","FILE":"3220403","ELEMENT_SET_NO":"999","NORAD_CAT_ID":"44932","GP_ID":"190175324","DECAY_DATE":null,"SEMIMAJOR_AXIS":"6925.387","MEAN_ELEMENT_THEORY":"SGP4","ECCENTRICITY":"0.00020740","PERIAPSIS":"545.816","EPHEMERIS_TYPE":"0","CLASSIFICATION_TYPE":"U","SITE":"AFETR","ARG_OF_PERICENTER":"77.0856","OBJECT_ID":"2020-001U"}];
